OBJECT_NAME,OBJECT_ID,EPOCH,MEAN_MOTION,ECCENTRICITY,INCLINATION,RA_OF_ASC_NODE,ARG_OF_PERICENTER,MEAN_ANOMALY,EPHEMERIS_TYPE,CLASSIFICATION_TYPE,NORAD_CAT_ID,ELEMENT_SET_NO,REV_AT_EPOCH,BSTAR,MEAN_MOTION_DOT,MEAN_MOTION_DDOT
CUBEBUG-2 (LO-74),2013-066AA,2026-07-02T19:18:06.183072,14.93892803,.005665,97.8915,132.8497,337.4394,22.4336,0,U,39440,999,67932,.51857E-3,.5629E-4,0
FUNCUBE-1 (AO-73),2013-066AE,2026-07-02T10:26:09.274848,15.09675808,.0037288,97.8285,155.2011,149.2742,211.0681,0,U,39444,999,68196,.46292E-3,.7511E-4,0
UWE-3,2013-066AG,2026-07-02T14:07:12.975168,14.97137588,.0047193,97.8709,139.7682,268.5027,91.0788,0,U,39446,999,67988,.30245E-3,.3508E-4,0
UNISAT-6,2014-033C,2026-07-02T15:56:14.011584,14.88321392,.0045236,97.7898,336.1049,19.2407,341.0506,0,U,40012,999,64846,.30037E-3,.2775E-4,0
DUCHIFAT-1,2014-033M,2026-07-02T02:25:15.934368,15.67889029,.00000967,98.0445,244.3920,180.5510,179.5749,0,U,40021,999,65808,.12874894E-2,.143832E-2,0
QB50P1,2014-033R,2026-07-02T18:26:57.033024,15.18500631,.0009438,98.0961,196.0094,162.0321,198.1247,0,U,40025,999,65539,.46935E-3,.962E-4,0
LILACSAT-2,2015-049K,2026-07-02T17:59:10.091040,15.51967479,.0007186,97.4623,221.1860,180.6292,179.4952,0,U,40908,999,59816,.3084E-3,.18467E-3,0
FOX-1A (AO-85),2015-058D,2026-07-02T13:52:35.907168,14.91033762,.0131455,64.7737,231.1515,50.6094,310.6573,0,U,40967,999,11586,.2334E-3,.2553E-4,0
CAS-2T & KS-1Q,2016-066G,2026-07-02T16:26:51.612576,14.44744917,.0342792,98.3817,259.2443,82.6153,281.3850,0,U,41847,999,50703,.24772E-3,.1723E-4,0
RADFXSAT (FOX-1B),2017-073E,2026-07-02T03:45:10.344672,15.12917223,.01481852,97.4681,50.0656,277.0157,81.4241,0,U,43017,999,46765,.33553019E-3,.7671E-4,0
DIWATA-2B,2018-084H,2026-07-02T18:35:14.902656,15.00520268,.0013109,98.1199,20.6631,121.7765,238.4736,0,U,43678,999,41855,.20028E-3,.2463E-4,0
ES'HAIL 2,2018-090A,2026-07-02T17:54:52.143840,1.00273165,.0002258,0.0179,33.5273,103.7662,77.9945,0,U,43700,999,2783,0,.155E-5,0
FOX-1CLIFF (AO-95),2018-099N,2026-07-02T14:37:55.530336,15.27038658,.000693,97.4375,243.8014,294.3124,65.7391,0,U,43770,999,41557,.43514E-3,.11484E-3,0
ITASAT,2018-099AE,2026-07-02T08:51:25.431840,15.19245229,.0010879,97.4016,234.5787,302.6059,57.4125,0,U,43786,999,41521,.38656E-3,.8093E-4,0
JY1SAT (JO-97),2018-099AX,2026-07-02T14:55:37.712064,15.34152879,.0005651,97.4118,246.5140,198.6681,161.4355,0,U,43803,999,41599,.54208E-3,.17868E-3,0
UWE-4,2018-111E,2026-07-02T17:50:18.255840,15.47102682,.0004413,97.5847,112.8616,254.2449,105.8314,0,U,43880,999,41318,.65109E-3,.32995E-3,0
TIANYAN 01,2019-093C,2026-07-02T17:28:58.998432,14.86542629,.0014587,97.7530,255.5815,40.5366,319.6933,0,U,44881,999,35372,.56701E-4,.449E-5,0
RS-44 & BREEZE-KM R/B,2019-096E,2026-07-02T15:23:36.586752,12.79748909,.021853,82.5226,329.4351,108.1962,254.3062,0,U,44909,999,30432,-.28969E-4,.6E-7,0
SALSAT,2020-068K,2026-07-02T06:06:00.402048,15.30013367,.0008038,97.8847,187.2381,243.7769,116.2645,0,U,46495,999,31766,.29987E-3,.8637E-4,0
XW-3 (CAS-9),2021-131B,2026-07-02T21:10:14.414592,14.41371762,.0005191,98.4992,276.1871,61.0870,299.0839,0,U,50466,999,23737,.17029E-3,.507E-5,0
GREENCUBE (IO-117),2022-080E,2026-06-30T17:23:31.202880,6.42583253,.00089588,70.1437,293.5372,286.6703,73.2973,0,U,53109,999,9293,0,-.3E-7,0
UMKA 1 (RS40S),2023-091G,2026-07-02T18:03:37.377216,15.21000770,.0014062,97.5039,242.3908,69.5691,290.7053,0,U,57172,999,16637,.30755E-3,.6768E-4,0
CUBESX-HSE 3 (RS42S),2023-091N,2026-07-02T17:24:15.837120,15.31610991,.0010995,97.5082,249.5119,45.3778,314.8358,0,U,57178,999,16680,.48145E-3,.14655E-3,0
MONITOR-3 (RS58S),2023-091Q,2026-07-02T17:15:07.255872,15.28158205,.0012262,97.5073,247.2811,51.9013,308.3330,0,U,57180,999,16666,.43274E-3,.11834E-3,0
MONITOR-4 (RS57S),2023-091S,2026-07-02T18:18:00.533088,15.28244342,.0012275,97.5067,247.2971,52.1792,308.0557,0,U,57182,999,16667,.40306E-3,.11045E-3,0
MONITOR-2 (RS39S),2023-091U,2026-07-02T17:27:44.086176,15.19055914,.001243,97.5060,241.9107,63.8113,296.4398,0,U,57184,999,16631,.27174E-3,.5638E-4,0
SVYATOBOR 1 (RS60S),2023-091X,2026-07-02T17:22:05.215008,15.26880993,.0009993,97.5079,247.6284,46.7400,313.4671,0,U,57187,999,16668,.38324E-3,.10062E-3,0
VIZARD-METEO (RS38S),2023-091Z,2026-07-02T17:09:31.311936,15.36524256,.0006913,97.5084,253.5156,27.4614,332.6993,0,U,57189,999,16707,.48784E-3,.17337E-3,0
POLYTECH-UNIVERSE 3 (RS46S),2023-091AB,2026-07-02T18:03:53.736192,15.19265905,.0016916,97.5036,241.4399,77.7441,282.5686,0,U,57191,999,16631,.28227E-3,.5905E-4,0
UTMN 2 (RS27S),2023-091AP,2026-07-02T17:37:27.441696,15.32435845,.0008069,97.5079,251.1738,35.0683,325.1088,0,U,57203,999,16692,.45928E-3,.14329E-3,0
